0266P         2026 12  7.5582  2.328712  0.340357   97.6762    4.9780    3.4270  20231014  14.7  4.0  266P/Christensen                                         MPEC 2021-F20
0267P         2024 04 24.8003  1.237990  0.614284  114.2219  228.6032    6.1430  20231014  19.5  4.0  267P/LONEOS                                              MPC114608
0268P         2024 12 17.7133  2.440401  0.473595  359.8738  124.9386   15.6283  20231014  14.0  4.0  268P/Bernardi                                            MPC 92277
0269P         2014 10  2.3639  4.010171  0.432362  225.6598  241.7662    7.0837  20231014  10.0  4.0  269P/Jedicke                                             MPEC 2023-J29
0270P         2030 08 16.0477  3.529339  0.469679  209.8036  223.0335    2.9250  20231014   8.0  4.0  270P/Gehrels                                             MPC 88332
0271P         2032 03 18.1350  4.247625  0.396108   36.4528    9.3395    6.8721  20231014  11.0  4.0  271P/van Houten-Lemmon                                   MPC 92277
0272P         2022 07 17.0191  2.431578  0.455012   27.8848  109.4525   18.0742  20231014  16.0  2.0  272P/NEAT                                                MPEC 2023-D41
0273P         2012 12 20.4973  0.828881  0.974123   20.3351  320.4133   36.6622  20231014  11.5  4.0  273P/Pons-Gambart                                        MPC 82723
0274P         2022 04  8.5158  2.452397  0.439787   38.4687   81.3211   15.8178  20231014  13.9  4.0  274P/Tombaugh-Tenagra                                    MPEC 2023-M14
0275P         2026 10 28.9243  1.659415  0.713178  173.9456  348.7001   21.2632  20231014  17.0  4.0  275P/Hermann                                             MPC 81862
0276P         2024 12 11.9120  3.898423  0.268724  199.3999  211.3397   14.8125  20231014  11.5  4.0  276P/Vorobjov                                            MPEC 2023-TM6
0277P         2020 12 30.7283  1.902152  0.506376  152.3653  276.2816   16.7840  20231014  15.1  4.0  277P/LINEAR                                              MPEC 2021-F20
0278P         2020 09 12.0666  2.064173  0.438509  237.4752   15.3250    6.6889  20231014  14.0  4.0  278P/McNaught                                            MPEC 2021-S45
0279P         2023 04 19.4682  2.147756  0.399419    5.8344  346.2076    5.0495  20231014  14.0  4.0  279P/LaSagra                                             MPEC 2023-TM6
0280P         2023 08  4.6960  2.640150  0.417036  104.7347  131.3788   11.7723  20231014  12.5  4.0  280P/Larsen                                              MPEC 2023-J95
0281P         2023 02  1.7910  4.034548  0.173328   26.6918   87.1735    4.7178  20231014  11.0  4.0  281P/MOSS                                                MPEC 2023-D41
0282P         2021 10 24.1845  3.441600  0.187811    9.2643  217.6224    5.8118  20231014  13.5  2.0  282P                                                     MPC133426
0283P         2021 09  7.7206  2.131775  0.484358   22.1908  161.1240   14.4572  20231014  16.0  2.0  283P/Spacewatch                                          MPEC 2022-K19
0284P         2021 09 12.4778  2.297702  0.375107  202.4622  144.2672   11.8594  20231014  13.0  4.0  284P/McNaught                                            MPEC 2023-D41
0285P         2023 01 12.2035  1.719142  0.618574  178.3923  185.5030   25.0374  20231014  15.0  4.0  285P/LINEAR                                              MPEC 2023-B57
0286P         2022 05 12.2862  2.356449  0.426557   24.8563  283.7320   17.0644  20231014  14.0  4.0  286P/Christensen                                         MPEC 2022-X67
0287P         2023 07  6.3008  3.034300  0.271477  189.1741  139.0407   16.3203  20231014  13.5  4.0  287P/Christensen                                         MPEC 2023-T65
0288P         2022 03  1.6728  2.437776  0.200351  280.2571   83.1081    3.2384  20231014  16.0  2.0  288P                                                     MPC133426
0289P         2025 04 14.3568  0.955180  0.686300    9.8472   68.8918    5.9002  20231014  19.7  4.0  289P/Blanpain                                            MPEC 2023-HD1
0290P         2029 07 23.2107  2.314550  0.627670  181.8187  302.6820   20.0534  20231014  10.5  4.0  290P/Jager                                               MPC 95214
0291P         2023 05  4.0439  2.565242  0.434335  173.5079  237.6595    6.3097  20231014  13.0  4.0  291P/NEAT                                                MPEC 2023-TM6
0292P         2029 03  2.6014  2.501340  0.589929  319.5827   90.9076   24.3074  20231014  12.5  4.0  292P/Li                                                  MPEC 2022-K19
0293P         2020 12 19.3616  2.115410  0.418803   40.9535   78.3643    9.0608  20231014  14.5  4.0  293P/Spacewatch                                          MPEC 2022-L66
0294P         2025 08 11.2065  1.270591  0.601821  235.4640  311.8481   18.1611  20231014  15.5  4.0  294P/LINEAR                                              MPEC 2020-SI8
0295P         2026 07 22.8075  2.029073  0.617413   72.9272    7.4213   21.0754  20231014  12.0  4.0  295P/LINEAR                                              MPEC 2022-K19
0296P         2020 09 17.2915  1.816743  0.479432  349.9353  263.5293   25.2736  20231014  14.0  4.0  296P/Garradd                                             MPEC 2021-N06
0297P         2021 02  2.0738  2.370559  0.319697  136.0973   96.3231   10.3555  20231014  15.0  4.0  297P/Beshore                                             MPC102956
0298P         2020 09  5.6281  2.203009  0.386289  100.5982   52.8138    7.8706  20231014  15.0  4.0  298P/Christensen                                         MPC114609
0299P         2024 04 30.5279  3.156213  0.280906  323.7174  271.5881   10.4673  20231014  11.5  4.0  299P/Catalina-PANSTARRS                                  MPEC 2023-OA6
0300P         2023 04 11.1150  0.831907  0.691727  222.9494   95.6171    5.6747  20231014  16.0  4.0  300P/Catalina                                            MPEC 2023-J95
0301P         2028 05 19.7605  2.379834  0.585669  193.5419  351.0936   10.3355  20231014  13.0  4.0  301P/LINEAR-NEAT                                         MPC 89014
0302P         2025 03  9.0345  3.288726  0.230057  208.5679  121.7203    6.0340  20231014  12.5  4.0  302P/Lemmon-PANSTARRS                                    MPEC 2023-N01
0303P         2026 02 19.6067  2.466977  0.510746  356.9874  347.9894    7.0184  20231014  13.5  4.0  303P/NEAT                                                MPC 92278
0304P         2026 03 17.8796  1.256967  0.601028  335.2498   58.9401    2.6065  20231014  16.5  4.0  304P/Ory                                                 MPEC 2022-K19
0305P         2024 11 17.0953  1.418995  0.694033  147.3582  240.1465   11.6666  20231014  18.0  4.0  305P/Skiff                                               MPC101100
0306P         2025 08  1.4714  1.271823  0.592928    0.8885  341.3788    8.3068  20231014  19.0  4.0  306P/LINEAR                                              MPC 92278
0307P         2028 11 30.6284  1.877931  0.675576  222.1697  158.1840    4.4375  20231014  15.0  4.0  307P/LINEAR                                              MPC 92278
0308P         2015 05 13.4785  4.192079  0.364764  333.6650   63.0969    4.8532  20231014  13.0  2.0  308P/Lagerkvist-Carsenty                                 MPEC 2022-C56
0309P         2024 03 29.0345  1.669616  0.618399   49.9312   10.1445   17.0236  20231014  15.0  4.0  309P/LINEAR                                              MPEC 2023-TM6
0310P         2023 10 23.6799  2.416702  0.423037   31.6127    8.9193   13.1228  20231014  13.5  4.0  310P/Hill                                                MPEC 2023-TM6
0311P         2024 01  2.0819  1.935175  0.115996  144.3142  279.1857    4.9696  20231014  17.0  4.0  311P/PANSTARRS                                           MPEC 2023-TM6
0312P         2020 09 25.1398  1.987176  0.427413  207.6490  144.7067   19.7623  20231014  16.0  4.0  312P/NEAT                                                MPEC 2021-BE3
0313P         2025 12  2.3007  2.421086  0.234842  254.8471  106.0068   10.9802  20231014  15.0  4.0  313P/Gibbs                                               MPEC 2021-S45
0314P         2016 10  8.8335  4.226084  0.417407  213.8676  267.6114    3.9890  20231014   9.5  4.0  314P/Montani                                             MPC105243
0315P         2027 11 17.3646  2.364519  0.521305   65.7703   68.7254   17.7327  20231014  11.0  4.0  315P/LONEOS                                              MPEC 2023-J29
0316P         2024 10 27.4382  3.715323  0.157349  243.9641  192.2389    9.8214  20231014  13.5  4.0  316P/LONEOS-Christensen                                  MPC 92279
0317P         2025 10 31.4945  1.270771  0.570945  334.8196  275.4702   11.9603  20231014  17.5  4.0  317P/WISE                                                MPEC 2020-C98
0318P         2015 10 26.1509  2.442627  0.674663  313.3158   35.5565   17.8759  20231014   8.5  6.0  318P/McNaught-Hartley                                    MPC102103
0319P         2022 03 31.2945  1.188952  0.666411  203.6673  111.3453   15.0946  20231014  15.0  4.0  319P/Catalina-McNaught                                   MPC 97499
0320P         2026 06 28.1265  0.974962  0.684963    0.7870  295.9427    4.9047  20231014  20.5  4.0  320P/McNaught                                            MPC 96281
0321P         2023 10 26.6101  0.045883  0.981062  172.7497  165.0115   20.0792  20231014  20.0  4.0  321P/SOHO                                                MPC105243
0322P         2023 08 21.0867  0.050197  0.979982   56.8987  351.5166   11.4750  20231014  19.0  4.0  322P/SOHO                                                MPC102103
0323P         2025 03 14.4721  0.039554  0.984689  353.0659  324.3733    5.3127  20231014  20.0  4.0  323P/SOHO                                                MPEC 2016-Y36
